NORAD_CAT_ID,OBJECT_NAME,OBJECT_TYPE,EPOCH,MEAN_MOTION,ECCENTRICITY,INCLINATION,RA_OF_ASC_NODE,ARG_OF_PERICENTER,MEAN_ANOMALY,BSTAR,MEAN_MOTION_DOT,MEAN_MOTION_DDOT,TLE_LINE0,TLE_LINE1,TLE_LINE2,SEMIMAJOR_AXIS,PERIOD,APOGEE,PERIGEE,DECAYED
53979.0,STARLINK-5123,PAYLOAD,2024-04-26 02:15:38,15.08843682,0.0001494,53.2181,43.4023,110.9297,249.1855,0.00030284,4.535e-05,0.0,0 STARLINK-5123,1 53979U 22125R   24117.09419096  .00004535  00000-0  30284-3 0  9995,2 53979  53.2181  43.4023 0001494 110.9297 249.1855 15.08843682 86416,6917.869,95.437,540.768,538.701,0.0
53979.0,STARLINK-5123,PAYLOAD,2024-04-26 11:47:57,15.08843932,0.0001341,53.2185,41.6225,90.057,270.0576,0.00075626,0.0001177,0.0,0 STARLINK-5123,1 53979U 22125R   24117.49163542  .00011770  00000-0  75626-3 0  9999,2 53979  53.2185  41.6225 0001341  90.0570 270.0576 15.08843932 86407,6917.868,95.437,540.661,538.806,0.0
53979.0,STARLINK-5123,PAYLOAD,2024-04-27 03:41:47,15.08862918,0.0001639,53.2184,38.6502,115.3897,244.7265,0.0008325,0.00012994,0.0,0 STARLINK-5123,1 53979U 22125R   24118.15402765  .00012994  00000-0  83250-3 0  9997,2 53979  53.2184  38.6502 0001639 115.3897 244.7265 15.08862918 86579,6917.81,95.436,540.809,538.542,0.0
53979.0,STARLINK-5123,PAYLOAD,2024-04-27 11:38:43,15.08851739,0.0001815,53.218,37.1622,74.9118,285.2075,0.00030141,4.514e-05,0.0,0 STARLINK-5123,1 53979U 22125R   24118.48523091  .00004514  00000-0  30141-3 0  9999,2 53979  53.2180  37.1622 0001815  74.9118 285.2075 15.08851739 86628,6917.845,95.437,540.965,538.454,0.0
53979.0,STARLINK-5123,PAYLOAD,2024-04-27 19:35:40,15.08823754,0.0001263,53.2177,35.6751,78.5138,281.5996,-0.0004759,-7.85e-05,0.0,0 STARLINK-5123,1 53979U 22125R   24118.81643629 -.00007850  00000-0 -47590-3 0  9990,2 53979  53.2177  35.6751 0001263  78.5138 281.5996 15.08823754 86671,6917.93,95.439,540.669,538.921,0.0
53979.0,STARLINK-5123,PAYLOAD,2024-04-28 03:32:35,15.08835607,0.0001478,53.218,34.1872,76.2759,283.8398,0.00013082,1.794e-05,0.0,0 STARLINK-5123,1 53979U 22125R   24119.14763740  .00001794  00000-0  13082-3 0  9992,2 53979  53.2180  34.1872 0001478  76.2759 283.8398 15.08835607 86722,6917.894,95.438,540.781,538.736,0.0
53979.0,STARLINK-5123,PAYLOAD,2024-04-28 11:29:31,15.08833201,0.0001261,53.2169,32.7021,85.9832,274.1304,0.00051703,7.949e-05,0.0,0 STARLINK-5123,1 53979U 22125R   24119.47883970  .00007949  00000-0  51703-3 0  9996,2 53979  53.2169  32.7021 0001261  85.9832 274.1304 15.08833201 86704,6917.901,95.438,540.639,538.894,0.0
53979.0,STARLINK-5123,PAYLOAD,2024-04-28 22:37:13,15.08841961,0.0001305,53.2168,30.6217,78.5275,281.5864,0.00055085,8.49e-05,0.0,0 STARLINK-5123,1 53979U 22125R   24119.94252037  .00008490  00000-0  55085-3 0  9991,2 53979  53.2168  30.6217 0001305  78.5275 281.5864 15.08841961 86777,6917.874,95.437,540.642,538.837,0.0
53979.0,STARLINK-5123,PAYLOAD,2024-04-29 11:20:18,15.08847187,0.0001238,53.2155,28.2407,83.304,276.8093,0.00043633,6.664e-05,0.0,0 STARLINK-5123,1 53979U 22125R   24120.47243812  .00006664  00000-0  43633-3 0  9999,2 53979  53.2155  28.2407 0001238  83.3040 276.8093 15.08847187 86920,6917.858,95.437,540.58,538.867,0.0
53979.0,STARLINK-5123,PAYLOAD,2024-04-29 22:28:00,15.08840016,0.0001495,53.2169,26.1599,80.8128,279.3033,7.4583e-05,8.99e-06,0.0,0 STARLINK-5123,1 53979U 22125R   24120.93612011  .00000899  00000-0  74583-4 0  9994,2 53979  53.2169  26.1599 0001495  80.8128 279.3033 15.08840016 86924,6917.88,95.438,540.78,538.711,0.0
53979.0,STARLINK-5123,PAYLOAD,2024-04-30 03:14:10,15.08845529,0.0001545,53.2184,25.266,86.2682,273.8486,0.00025422,3.761e-05,0.0,0 STARLINK-5123,1 53979U 22125R   24121.13483846  .00003761  00000-0  25422-3 0  9997,2 53979  53.2184  25.2660 0001545  86.2682 273.8486 15.08845529 87028,6917.863,95.437,540.797,538.66,0.0
53979.0,STARLINK-5123,PAYLOAD,2024-04-30 11:11:05,15.08858902,0.0001541,53.2186,23.7811,81.8546,278.2621,0.00049681,7.632e-05,0.0,0 STARLINK-5123,1 53979U 22125R   24121.46603277  .00007632  00000-0  49681-3 0  9999,2 53979  53.2186  23.7811 0001541  81.8546 278.2621 15.08858902 87071,6917.823,95.436,540.754,538.622,0.0
53979.0,STARLINK-5123,PAYLOAD,2024-04-30 22:18:46,15.08871701,0.0001466,53.2185,21.6994,84.0416,276.0744,0.00065735,0.00010198,0.0,0 STARLINK-5123,1 53979U 22125R   24121.92970420  .00010198  00000-0  65735-3 0  9996,2 53979  53.2185  21.6994 0001466  84.0416 276.0744 15.08871701 87070,6917.783,95.436,540.663,538.634,0.0
53979.0,STARLINK-5123,PAYLOAD,2024-04-30 23:54:09,15.08875656,0.0001445,53.2174,21.4016,87.5146,272.6011,0.00084219,0.00013154,0.0,0 STARLINK-5123,1 53979U 22125R   24121.99594248  .00013154  00000-0  84219-3 0  9996,2 53979  53.2174  21.4016 0001445  87.5146 272.6011 15.08875656 87157,6917.771,95.435,540.636,538.637,0.0
53979.0,STARLINK-5123,PAYLOAD,2024-05-02 02:55:42,15.08846069,0.0001328,53.2187,16.3489,105.9317,254.1821,0.0004438,6.783e-05,0.0,0 STARLINK-5123,1 53979U 22125R   24123.12202532  .00006783  00000-0  44380-3 0  9990,2 53979  53.2187  16.3489 0001328 105.9317 254.1821 15.08846069 87322,6917.862,95.437,540.646,538.808,0.0
53979.0,STARLINK-5123,PAYLOAD,2024-05-02 20:24:58,15.08832489,0.0001246,53.2173,13.075,103.1287,256.9844,0.00058301,9.001e-05,0.0,0 STARLINK-5123,1 53979U 22125R   24123.85067407  .00009001  00000-0  58301-3 0  9994,2 53979  53.2173  13.0750 0001246 103.1287 256.9844 15.08832489 87435,6917.903,95.438,540.63,538.906,0.0
53979.0,STARLINK-5123,PAYLOAD,2024-05-03 09:08:03,15.08849092,0.000115,53.2168,10.6975,101.1574,258.9547,0.00084798,0.00013237,0.0,0 STARLINK-5123,1 53979U 22125R   24124.38059184  .00013237  00000-0  84798-3 0  9991,2 53979  53.2168  10.6975 0001150 101.1574 258.9547 15.08849092 87443,6917.853,95.437,540.513,538.922,0.0
53979.0,STARLINK-5123,PAYLOAD,2024-05-03 21:51:08,15.08846764,0.0001087,53.2165,8.3173,92.278,267.8336,0.00039157,5.951e-05,0.0,0 STARLINK-5123,1 53979U 22125R   24124.91051134  .00005951  00000-0  39157-3 0  9990,2 53979  53.2165   8.3173 0001087  92.2780 267.8336 15.08846764 87529,6917.86,95.437,540.477,538.973,0.0
53979.0,STARLINK-5123,PAYLOAD,2024-05-03 23:26:31,15.08849392,0.0001038,53.2167,8.0205,91.3647,268.7464,0.00049985,7.678e-05,0.0,0 STARLINK-5123,1 53979U 22125R   24124.97675071  .00007678  00000-0  49985-3 0  9996,2 53979  53.2167   8.0205 0001038  91.3647 268.7464 15.08849392 87603,6917.852,95.437,540.435,538.999,0.0
53979.0,STARLINK-5123,PAYLOAD,2024-05-04 08:58:50,15.08844819,9.05e-05,53.2157,6.2363,79.8493,280.2601,0.00035836,5.421e-05,0.0,0 STARLINK-5123,1 53979U 22125R   24125.37419061  .00005421  00000-0  35836-3 0  9990,2 53979  53.2157   6.2363 0000905  79.8493 280.2601 15.08844819 87666,6917.866,95.437,540.357,539.105,0.0
53979.0,STARLINK-5123,PAYLOAD,2024-05-04 20:06:32,15.08835216,0.0002038,53.217,4.1547,85.9742,274.1483,0.00028629,4.271e-05,0.0,0 STARLINK-5123,1 53979U 22125R   24125.83787869  .00004271  00000-0  28629-3 0  9999,2 53979  53.2170   4.1547 0002038  85.9742 274.1483 15.08835216 87735,6917.895,95.438,541.17,538.35,0.0
53979.0,STARLINK-5123,PAYLOAD,2024-05-04 23:17:18,15.08832443,0.0001187,53.217,3.5621,93.2176,266.8952,5.1629e-05,5.34e-06,0.0,0 STARLINK-5123,1 53979U 22125R   24125.97035768  .00000534  00000-0  51629-4 0  9993,2 53979  53.2170   3.5621 0001187  93.2176 266.8952 15.08832443 87680,6917.903,95.438,540.59,538.947,0.0
53979.0,STARLINK-5123,PAYLOAD,2024-05-05 21:32:43,15.08844331,0.0001219,53.2166,359.3977,80.4503,279.6627,0.00039639,6.027e-05,0.0,0 STARLINK-5123,1 53979U 22125R   24126.89772053  .00006027  00000-0  39639-3 0  9999,2 53979  53.2166 359.3977 0001219  80.4503 279.6627 15.08844331 87825,6917.867,95.437,540.575,538.889,0.0
53979.0,STARLINK-5123,PAYLOAD,2024-05-06 00:43:29,15.08851512,0.0001265,53.2169,358.8022,78.9036,281.2098,0.00080437,0.00012541,0.0,0 STARLINK-5123,1 53979U 22125R   24127.03020032  .00012541  00000-0  80437-3 0  9999,2 53979  53.2169 358.8022 0001265  78.9036 281.2098 15.08851512 87917,6917.845,95.437,540.585,538.835,0.0
53979.0,STARLINK-5123,PAYLOAD,2024-05-06 21:23:29,15.08849569,0.000112,53.2154,354.9369,97.8258,262.2861,0.00036073,5.459e-05,0.0,0 STARLINK-5123,1 53979U 22125R   24127.89131790  .00005459  00000-0  36073-3 0  9994,2 53979  53.2154 354.9369 0001120  97.8258 262.2861 15.08849569 88049,6917.851,95.437,540.491,538.941,0.0
53979.0,STARLINK-5123,PAYLOAD,2024-05-07 08:31:11,15.08848872,0.0001195,53.2172,352.8541,82.0859,278.0269,0.00030997,4.65e-05,0.0,0 STARLINK-5123,1 53979U 22125R   24128.35499909  .00004650  00000-0  30997-3 0  9996,2 53979  53.2172 352.8541 0001195  82.0859 278.0269 15.08848872 88114,6917.853,95.437,540.545,538.892,0.0
53979.0,STARLINK-5123,PAYLOAD,2024-05-07 19:38:54,15.08835989,0.0001636,53.218,350.7716,92.1658,267.9521,0.00011723,1.578e-05,0.0,0 STARLINK-5123,1 53979U 22125R   24128.81868457  .00001578  00000-0  11723-3 0  9997,2 53979  53.2180 350.7716 0001636  92.1658 267.9521 15.08835989 88183,6917.893,95.438,540.889,538.626,0.0
53979.0,STARLINK-5123,PAYLOAD,2024-05-07 21:14:17,15.08836265,0.0001364,53.218,350.4738,97.5699,262.5448,2.9213e-05,1.77e-06,0.0,0 STARLINK-5123,1 53979U 22125R   24128.88492412  .00000177  00000-0  29213-4 0  9996,2 53979  53.2180 350.4738 0001364  97.5699 262.5448 15.08836265 88127,6917.892,95.438,540.7,538.813,0.0
53979.0,STARLINK-5123,PAYLOAD,2024-05-08 14:43:32,15.08841267,0.0001171,53.2172,347.2055,83.3344,276.7782,0.00025882,3.834e-05,0.0,0 STARLINK-5123,1 53979U 22125R   24129.61356773  .00003834  00000-0  25882-3 0  9997,2 53979  53.2172 347.2055 0001171  83.3344 276.7782 15.08841267 88238,6917.877,95.437,540.552,538.931,0.0
53979.0,STARLINK-5123,PAYLOAD,2024-05-08 21:05:04,15.08848174,0.000103,53.2168,346.016,81.5633,278.5476,0.00051222,7.875e-05,0.0,0 STARLINK-5123,1 53979U 22125R   24129.87852649  .00007875  00000-0  51222-3 0  9994,2 53979  53.2168 346.0160 0001030  81.5633 278.5476 15.08848174 88348,6917.855,95.437,540.433,539.008,0.0
